#aV2021  5 19  0  0  0.00000000     288 DD+AD WGS84 FIT  NGA
## 2158 259200.00000000   300.00000000 59353 0.0000000000000
+   31     1  2  3  4  5  6  7  8  9 10 12 13 14 15 16 17 18
+         19 20 21 22 23 24 25 26 27 28 29 30 31 32  0  0  0
+          0  0  0  0  0  0  0  0  0  0  0  0  0  0  0  0  0
+          0  0  0  0  0  0  0  0  0  0  0  0  0  0  0  0  0
+          0  0  0  0  0  0  0  0  0  0  0  0  0  0  0  0  0
++         2  2  2  2  2  2  2  2  2  2  2  2  2  2  2  2  2
++         2  2  2  2  2  2  2  2  2  2  2  2  2  2  0  0  0
++         0  0  0  0  0  0  0  0  0  0  0  0  0  0  0  0  0
++         0  0  0  0  0  0  0  0  0  0  0  0  0  0  0  0  0
++         0  0  0  0  0  0  0  0  0  0  0  0  0  0  0  0  0
%c cc cc ccc ccc cccc cccc cccc cccc ccccc ccccc ccccc ccccc
%c cc cc ccc ccc cccc cccc cccc cccc ccccc ccccc ccccc ccccc
%f  0.0000000  0.000000000  0.00000000000  0.000000000000000
%f  0.0000000  0.000000000  0.00000000000  0.000000000000000
%i    0    0    0    0      0      0      0      0         0
%i    0    0    0    0      0      0      0      0         0
/*      NGA, ST. LOUIS,MO.                                  
/*   EPHEMERIS COMPUTED FROM 2 DAYS OF DATA                 
/*   EPOCHA v6 SMOOTHER                                     
/*   G2139 IERS2010 SATIGS SATAPC                           
*  2021  5 19  0 50  0.00000000
P  1  -4226.226175  16852.961481 -20240.358448    685.092562                    
V  1 -23182.358795   9853.871698  13552.409849     -0.111009                    
P  2  22067.312491 -14719.337074   2444.699843   -605.356673                    
V  2   3327.904587   1141.509867 -31580.514492     -0.031389                    
P  3   5860.512221  18846.114686 -17911.008431   -167.739068                    
V  3 -19402.573503 -11501.351108 -18425.319898     -0.104006                    
P  4   -819.849792  26364.724267   2848.111428   -196.805340                    
V  4  -3235.845693   3286.473213 -31503.636697     -0.014827                    
P  5   9849.687101 -11766.539193  21537.135206    -42.340774                    
V  5  23397.997218  14853.709432  -2385.739479     -0.011251                    
P  6  24465.991796  -5134.002412  -9007.167650     17.158980                    
V  6  -9528.506837   6657.911927 -29425.803085      0.038457                    
P  7  11132.542390  11679.088475  21513.673995    154.705461                    
V  7 -23782.518387  11603.521969   5615.072883      0.105667                    
P  8  -6139.183232  24729.616335   6897.931595    -21.722775                    
V  8  -2239.694737  -8979.099805  30450.599393     -0.014222                    
P  9   7753.581625  21999.380804  12625.188042   -346.298713                    
V  9  -3423.870025  15982.800770 -25650.386140     -0.022649                    
P 10 -23565.844178 -11013.795320  -5910.330634   -124.725540                    
V 10  -5026.817467  -6125.099436  30585.755317     -0.076580                    
P 12  -2521.188006 -18560.883879 -19141.547192    -42.963713                    
V 12  19257.164687  13830.230926 -16024.620697     -0.051703                    
P 13  13002.449160 -19088.856770  12861.808018    133.758176                    
V 13  -1182.772009  16692.362555  25837.133657      0.047431                    
P 14  22976.829488  12033.403633  -5809.403776     83.884824                    
V 14   4226.278771   6645.281616  30502.523507     -0.054312                    
P 15   3412.787662 -25363.503960   6013.903193   -148.450349                    
V 15   4383.245068   8031.440850  29960.785858      0.026183                    
P 16 -14575.664046   6552.334448  21049.979513   -327.374237                    
V 16 -20720.018127 -17586.565812  -8326.762790     -0.060476                    
P 17  13174.239293   8098.602552 -21167.696724    444.583403                    
V 17  -4272.793364  27502.283523   7711.528172      0.060087                    
P 18 -14028.999185  -9174.245396  20607.714569    350.025331                    
V 18  23436.426142 -11633.196724  10705.855098     -0.010454                    
P 19  15239.084986  -1572.200637 -21969.951374      1.839091                    
V 19  -4460.227075  26803.455192  -5191.699262      0.049849                    
P 20   -109.239159 -16811.963974  20570.462171    522.053878                    
V 20  23982.265536  10672.328024   8551.201569     -0.003909                    
P 21 -11793.263434  18314.887111 -14142.073960    119.090658                    
V 21 -18160.654529   7333.070149  23957.206064      0.026406                    
P 22  -3854.356771  15556.036612 -21006.427002   -610.847673                    
V 22 -24132.014272 -12560.184731  -4638.761308      0.095227                    
P 23 -19974.320680 -16845.208869   4887.779154    105.509699                    
V 23   6647.290349   1160.872141  30987.985526     -0.033076                    
P 24   8387.457818 -18949.581561 -16637.349742     85.892026                    
V 24  19356.118384  -8259.055269  19848.269811      0.223116                    
P 25 -14849.060836 -19367.627291 -11067.263081    139.757608                    
V 25  12445.027905   5809.898404 -27261.407424      0.070484                    
P 26 -21327.070695    456.347733  15928.980934     87.108208                    
V 26 -16142.880349 -12465.442183 -20908.778680      0.049334                    
P 27 -12098.914017  17032.552906  15999.410688   -132.422296                    
V 27   -364.118262 -20841.082480  22030.436299     -0.064988                    
P 28  22214.227824   8649.576167 -10973.110700    569.119523                    
V 28   9896.507185  11268.929011  27750.420751     -0.061047                    
P 29  -5301.577192 -22591.793088  12826.533453   -349.394930                    
V 29   4103.125840 -15920.024150 -26287.433544     -0.064639                    
P 30  21759.627885   2451.419407  15253.707247   -427.852706                    
V 30 -16559.200570  10060.198335  21856.981305     -0.049377                    
P 31 -25244.240345   6666.448360  -6155.389795   -118.075107                    
V 31   5925.380250  -5370.510131 -30077.475601     -0.021687                    
P 32 -14769.006138  -5076.484801 -21388.870312     20.944969                    
V 32   2190.348021 -27332.353612   4780.840796     -0.007837                    
EOF
